STARLINK-31020          
1 58509U 23191B   25279.15800970 -.00001759  00000+0 -11519-3 0  9991
2 58509  43.0048 227.5546 0001165 269.7534  90.3174 15.02538460102177
STARLINK-30989          
1 58510U 23191C   25279.17318479  .00000650  00000+0  63162-4 0  9992
2 58510  43.0040 225.9593 0001176 268.0233  92.0475 15.02537853102229
STARLINK-30968          
1 58511U 23191D   25279.23633188  .00003336  00000+0  26202-3 0  9994
2 58511  43.0036 225.5730 0001039 267.1620  92.9104 15.02523344102208
STARLINK-30982          
1 58512U 23191E   25279.23300034  .00000923  00000+0  83354-4 0  9997
2 58512  43.0024 225.5521 0000909 270.1687  89.9051 15.02538063102207
STARLINK-30998          
1 58513U 23191F   25279.22968797 -.00001650  00000+0 -10718-3 0  9996
2 58513  43.0027 225.5229 0001081 278.2993  81.7727 15.02512122102238
STARLINK-30983          
1 58514U 23191G   25279.25288549 -.00001376  00000+0 -86883-4 0  9992
2 58514  43.0040 224.8426 0001428 264.0162  96.0517 15.02517616101868
STARLINK-31017          
1 58515U 23191H   25279.01507874 -.00001148  00000+0 -32253-4 0  9991
2 58515  43.0037  24.6797 0000682 334.5558  25.5260 15.27551884104525
STARLINK-31028          
1 58516U 23191J   25279.22300854 -.00000222  00000+0 -13939-5 0  9997
2 58516  43.0033 225.4694 0001223 274.7772  85.2931 15.02539840102206
STARLINK-31011          
1 58517U 23191K   25279.22635760 -.00002902  00000+0 -20002-3 0  9999
2 58517  43.0021 225.4983 0000878 270.7361  89.3380 15.02511039102203
STARLINK-31021          
1 58518U 23191L   25279.24285976  .00002974  00000+0  23501-3 0  9996
2 58518  43.0024 224.7480 0000801 264.4396  95.6355 15.02551701102218
STARLINK-31010          
1 58519U 23191M   25278.98029118  .00002568  00000+0  20510-3 0  9997
2 58519  43.0029 226.1830 0000914 275.3070  84.7668 15.02530176102178
STARLINK-31003          
1 58520U 23191N   25279.15320600  .00001011  00000+0  89905-4 0  9995
2 58520  43.0027 225.8091 0001041 272.2023  87.8700 15.02536642102196
STARLINK-31015          
1 58521U 23191P   25279.28283529  .00000395  00000+0  44318-4 0  9991
2 58521  43.0024 225.0646 0000792 298.9550  61.1213 15.02533349102188
STARLINK-31023          
1 58522U 23191Q   25279.21302366  .00000626  00000+0  61402-4 0  9996
2 58522  43.0021 225.3968 0000938 273.2870  86.7865 15.02534664102209
STARLINK-30932          
1 58523U 23191R   25279.14321692  .00000384  00000+0  43518-4 0  9991
2 58523  43.0034 225.7330 0001030 271.8720  88.2004 15.02533411102147
STARLINK-30992          
1 58524U 23191S   25279.20636425  .00000177  00000+0  28207-4 0  9990
2 58524  43.0038 225.3435 0001170 275.9315  84.1394 15.02533985102204
STARLINK-30948          
1 58525U 23191T   25279.20303492  .00000719  00000+0  68324-4 0  9992
2 58525  43.0020 225.3241 0001110 275.4111  84.6605 15.02532623102202
