[{"OBJECT_NAME":"STARLINK-31020","OBJECT_ID":"2023-191B","EPOCH":"2025-10-06T03:47:32.038080","MEAN_MOTION":15.0253846,"ECCENTRICITY":0.0001165,"INCLINATION":43.0048,"RA_OF_ASC_NODE":227.5546,"ARG_OF_PERICENTER":269.7534,"MEAN_ANOMALY":90.3174,"EPHEMERIS_TYPE":0,"CLASSIFICATION_TYPE":"U","NORAD_CAT_ID":58509,"ELEMENT_SET_NO":999,"REV_AT_EPOCH":10217,"BSTAR":-0.00011519,"MEAN_MOTION_DOT":-1.759e-5,"MEAN_MOTION_DDOT":0},{"OBJECT_NAME":"STARLINK-30989","OBJECT_ID":"2023-191C","EPOCH":"2025-10-06T04:09:23.165856","MEAN_MOTION":15.02537853,"ECCENTRICITY":0.0001176,"INCLINATION":43.004,"RA_OF_ASC_NODE":225.9593,"ARG_OF_PERICENTER":268.0233,"MEAN_ANOMALY":92.0475,"EPHEMERIS_TYPE":0,"CLASSIFICATION_TYPE":"U","NORAD_CAT_ID":58510,"ELEMENT_SET_NO":999,"REV_AT_EPOCH":10222,"BSTAR":6.3162e-5,"MEAN_MOTION_DOT":6.5e-6,"MEAN_MOTION_DDOT":0},{"OBJECT_NAME":"STARLINK-30968","OBJECT_ID":"2023-191D","EPOCH":"2025-10-06T05:40:19.074432","MEAN_MOTION":15.02523344,"ECCENTRICITY":0.0001039,"INCLINATION":43.0036,"RA_OF_ASC_NODE":225.573,"ARG_OF_PERICENTER":267.162,"MEAN_ANOMALY":92.9104,"EPHEMERIS_TYPE":0,"CLASSIFICATION_TYPE":"U","NORAD_CAT_ID":58511,"ELEMENT_SET_NO":999,"REV_AT_EPOCH":10220,"BSTAR":0.00026202,"MEAN_MOTION_DOT":3.336e-5,"MEAN_MOTION_DDOT":0},{"OBJECT_NAME":"STARLINK-30982","OBJECT_ID":"2023-191E","EPOCH":"2025-10-06T05:35:31.229376","MEAN_MOTION":15.02538063,"ECCENTRICITY":9.09e-5,"INCLINATION":43.0024,"RA_OF_ASC_NODE":225.5521,"ARG_OF_PERICENTER":270.1687,"MEAN_ANOMALY":89.9051,"EPHEMERIS_TYPE":0,"CLASSIFICATION_TYPE":"U","NORAD_CAT_ID":58512,"ELEMENT_SET_NO":999,"REV_AT_EPOCH":10220,"BSTAR":8.3354e-5,"MEAN_MOTION_DOT":9.23e-6,"MEAN_MOTION_DDOT":0},{"OBJECT_NAME":"STARLINK-30998","OBJECT_ID":"2023-191F","EPOCH":"2025-10-06T05:30:45.040608","MEAN_MOTION":15.02512122,"ECCENTRICITY":0.0001081,"INCLINATION":43.0027,"RA_OF_ASC_NODE":225.5229,"ARG_OF_PERICENTER":278.2993,"MEAN_ANOMALY":81.7727,"EPHEMERIS_TYPE":0,"CLASSIFICATION_TYPE":"U","NORAD_CAT_ID":58513,"ELEMENT_SET_NO":999,"REV_AT_EPOCH":10223,"BSTAR":-0.00010718,"MEAN_MOTION_DOT":-1.65e-5,"MEAN_MOTION_DDOT":0},{"OBJECT_NAME":"STARLINK-30983","OBJECT_ID":"2023-191G","EPOCH":"2025-10-06T06:04:09.306336","MEAN_MOTION":15.02517616,"ECCENTRICITY":0.0001428,"INCLINATION":43.004,"RA_OF_ASC_NODE":224.8426,"ARG_OF_PERICENTER":264.0162,"MEAN_ANOMALY":96.0517,"EPHEMERIS_TYPE":0,"CLASSIFICATION_TYPE":"U","NORAD_CAT_ID":58514,"ELEMENT_SET_NO":999,"REV_AT_EPOCH":10186,"BSTAR":-8.6883e-5,"MEAN_MOTION_DOT":-1.376e-5,"MEAN_MOTION_DDOT":0},{"OBJECT_NAME":"STARLINK-31017","OBJECT_ID":"2023-191H","EPOCH":"2025-10-06T00:21:42.803136","MEAN_MOTION":15.27551884,"ECCENTRICITY":6.82e-5,"INCLINATION":43.0037,"RA_OF_ASC_NODE":24.6797,"ARG_OF_PERICENTER":334.5558,"MEAN_ANOMALY":25.526,"EPHEMERIS_TYPE":0,"CLASSIFICATION_TYPE":"U","NORAD_CAT_ID":58515,"ELEMENT_SET_NO":999,"REV_AT_EPOCH":10452,"BSTAR":-3.2253e-5,"MEAN_MOTION_DOT":-1.148e-5,"MEAN_MOTION_DDOT":0},{"OBJECT_NAME":"STARLINK-31028","OBJECT_ID":"2023-191J","EPOCH":"2025-10-06T05:21:07.937856","MEAN_MOTION":15.0253984,"ECCENTRICITY":0.0001223,"INCLINATION":43.0033,"RA_OF_ASC_NODE":225.4694,"ARG_OF_PERICENTER":274.7772,"MEAN_ANOMALY":85.2931,"EPHEMERIS_TYPE":0,"CLASSIFICATION_TYPE":"U","NORAD_CAT_ID":58516,"ELEMENT_SET_NO":999,"REV_AT_EPOCH":10220,"BSTAR":-1.3939e-6,"MEAN_MOTION_DOT":-2.22e-6,"MEAN_MOTION_DDOT":0},{"OBJECT_NAME":"STARLINK-31011","OBJECT_ID":"2023-191K","EPOCH":"2025-10-06T05:25:57.296640","MEAN_MOTION":15.02511039,"ECCENTRICITY":8.78e-5,"INCLINATION":43.0021,"RA_OF_ASC_NODE":225.4983,"ARG_OF_PERICENTER":270.7361,"MEAN_ANOMALY":89.338,"EPHEMERIS_TYPE":0,"CLASSIFICATION_TYPE":"U","NORAD_CAT_ID":58517,"ELEMENT_SET_NO":999,"REV_AT_EPOCH":10220,"BSTAR":-0.00020002,"MEAN_MOTION_DOT":-2.902e-5,"MEAN_MOTION_DDOT":0},{"OBJECT_NAME":"STARLINK-31021","OBJECT_ID":"2023-191L","EPOCH":"2025-10-06T05:49:43.083264","MEAN_MOTION":15.02551701,"ECCENTRICITY":8.01e-5,"INCLINATION":43.0024,"RA_OF_ASC_NODE":224.748,"ARG_OF_PERICENTER":264.4396,"MEAN_ANOMALY":95.6355,"EPHEMERIS_TYPE":0,"CLASSIFICATION_TYPE":"U","NORAD_CAT_ID":58518,"ELEMENT_SET_NO":999,"REV_AT_EPOCH":10221,"BSTAR":0.00023501,"MEAN_MOTION_DOT":2.974e-5,"MEAN_MOTION_DDOT":0},{"OBJECT_NAME":"STARLINK-31010","OBJECT_ID":"2023-191M","EPOCH":"2025-10-05T23:31:37.157952","MEAN_MOTION":15.02530176,"ECCENTRICITY":9.14e-5,"INCLINATION":43.0029,"RA_OF_ASC_NODE":226.183,"ARG_OF_PERICENTER":275.307,"MEAN_ANOMALY":84.7668,"EPHEMERIS_TYPE":0,"CLASSIFICATION_TYPE":"U","NORAD_CAT_ID":58519,"ELEMENT_SET_NO":999,"REV_AT_EPOCH":10217,"BSTAR":0.0002051,"MEAN_MOTION_DOT":2.568e-5,"MEAN_MOTION_DDOT":0},{"OBJECT_NAME":"STARLINK-31003","OBJECT_ID":"2023-191N","EPOCH":"2025-10-06T03:40:36.998400","MEAN_MOTION":15.02536642,"ECCENTRICITY":0.0001041,"INCLINATION":43.0027,"RA_OF_ASC_NODE":225.8091,"ARG_OF_PERICENTER":272.2023,"MEAN_ANOMALY":87.87,"EPHEMERIS_TYPE":0,"CLASSIFICATION_TYPE":"U","NORAD_CAT_ID":58520,"ELEMENT_SET_NO":999,"REV_AT_EPOCH":10219,"BSTAR":8.9905e-5,"MEAN_MOTION_DOT":1.011e-5,"MEAN_MOTION_DDOT":0},{"OBJECT_NAME":"STARLINK-31015","OBJECT_ID":"2023-191P","EPOCH":"2025-10-06T06:47:16.969056","MEAN_MOTION":15.02533349,"ECCENTRICITY":7.92e-5,"INCLINATION":43.0024,"RA_OF_ASC_NODE":225.0646,"ARG_OF_PERICENTER":298.955,"MEAN_ANOMALY":61.1213,"EPHEMERIS_TYPE":0,"CLASSIFICATION_TYPE":"U","NORAD_CAT_ID":58521,"ELEMENT_SET_NO":999,"REV_AT_EPOCH":10218,"BSTAR":4.4318e-5,"MEAN_MOTION_DOT":3.95e-6,"MEAN_MOTION_DDOT":0},{"OBJECT_NAME":"STARLINK-31023","OBJECT_ID":"2023-191Q","EPOCH":"2025-10-06T05:06:45.244224","MEAN_MOTION":15.02534664,"ECCENTRICITY":9.38e-5,"INCLINATION":43.0021,"RA_OF_ASC_NODE":225.3968,"ARG_OF_PERICENTER":273.287,"MEAN_ANOMALY":86.7865,"EPHEMERIS_TYPE":0,"CLASSIFICATION_TYPE":"U","NORAD_CAT_ID":58522,"ELEMENT_SET_NO":999,"REV_AT_EPOCH":10220,"BSTAR":6.1402e-5,"MEAN_MOTION_DOT":6.26e-6,"MEAN_MOTION_DDOT":0},{"OBJECT_NAME":"STARLINK-30932","OBJECT_ID":"2023-191R","EPOCH":"2025-10-06T03:26:13.941888","MEAN_MOTION":15.02533411,"ECCENTRICITY":0.000103,"INCLINATION":43.0034,"RA_OF_ASC_NODE":225.733,"ARG_OF_PERICENTER":271.872,"MEAN_ANOMALY":88.2004,"EPHEMERIS_TYPE":0,"CLASSIFICATION_TYPE":"U","NORAD_CAT_ID":58523,"ELEMENT_SET_NO":999,"REV_AT_EPOCH":10214,"BSTAR":4.3518e-5,"MEAN_MOTION_DOT":3.84e-6,"MEAN_MOTION_DDOT":0},{"OBJECT_NAME":"STARLINK-30992","OBJECT_ID":"2023-191S","EPOCH":"2025-10-06T04:57:09.871200","MEAN_MOTION":15.02533985,"ECCENTRICITY":0.000117,"INCLINATION":43.0038,"RA_OF_ASC_NODE":225.3435,"ARG_OF_PERICENTER":275.9315,"MEAN_ANOMALY":84.1394,"EPHEMERIS_TYPE":0,"CLASSIFICATION_TYPE":"U","NORAD_CAT_ID":58524,"ELEMENT_SET_NO":999,"REV_AT_EPOCH":10220,"BSTAR":2.8207e-5,"MEAN_MOTION_DOT":1.77e-6,"MEAN_MOTION_DDOT":0},{"OBJECT_NAME":"STARLINK-30948","OBJECT_ID":"2023-191T","EPOCH":"2025-10-06T04:52:22.217088","MEAN_MOTION":15.02532623,"ECCENTRICITY":0.000111,"INCLINATION":43.002,"RA_OF_ASC_NODE":225.3241,"ARG_OF_PERICENTER":275.4111,"MEAN_ANOMALY":84.6605,"EPHEMERIS_TYPE":0,"CLASSIFICATION_TYPE":"U","NORAD_CAT_ID":58525,"ELEMENT_SET_NO":999,"REV_AT_EPOCH":10220,"BSTAR":6.8324e-5,"MEAN_MOTION_DOT":7.19e-6,"MEAN_MOTION_DDOT":0}]
